#dP2022  4 24  0  0  0.00000000      97 __u+U IGS14 FIT  IAC
## 2207      0.00000000   900.00000000 59693 0.0000000000000
+  124   C01C02C03C04C05C06C07C08C09C10C11C12C13C14C16C19C20
+        C21C22C23C24C25C26C27C28C29C30C32C33C34C35C36C37C38
+        C39C40C41C42C43C44C45C46C59C60E01E02E03E04E05E07E08
+        E09E10E11E12E13E14E15E18E19E21E24E25E26E27E30E31E33
+        E34E36G01G02G03G04G05G06G07G08G09G10G12G13G14G15G16
+        G17G18G19G20G21G22G23G24G25G26G27G28G29G30G31G32J02
+        J03J07R01R02R03R04R05R07R08R09R11R12R13R14R15R17R18
+        R19R20R21R22R24  0  0  0  0  0  0  0  0  0  0  0  0
++        12 10 11 11 14  7  7  7  7  7  6  7  7  6  7  6  5
++         5  6  6  6  6  6  5  6  6  6  6  6  6  6  6  5  7
++         7  6  6  6  6  6  6  6 12 11  4  4  4  4  4  4  4
++         4  5  4  4  4  4  4  5  4  4  4  4  4  4  5  4  4
++         5  4  4  3  3  3  3  3  4  3  3  3  4  3  4  3  3
++         5  4  4  3  4  3  3  3  3  3  3  5  3  3  4  4  9
++         9 14  7  6  6  6  6  6  6  6  7  6  7  6  6  6  6
++         7  7  6  7  6  0  0  0  0  0  0  0  0  0  0  0  0
%c M  cc GPS ccc cccc cccc cccc cccc ccccc ccccc ccccc ccccc
%c cc cc ccc ccc cccc cccc cccc cccc ccccc ccccc ccccc ccccc
%f  1.2500000  1.025000000  0.00000000000  0.000000000000000
%f  0.0000000  0.000000000  0.00000000000  0.000000000000000
%i    0    0    0    0      0      0      0      0         0
%i    0    0    0    0      0      0      0      0         0
/* INFORMATION & ANALYSIS CENTER (IAC)            FINAL DATA
/* S/V CLOCKS ARE ALIGNED TO GNSS TIME                      
/* G:C1WC2W R:C1PC2P E:C1XC5X C:C2IC6I J:C1CC2S             
/* PCV:IGS14_2196 OL/AL:FES2004  NONE     YN ORB:CoN CLK:CoN
*  2022 04 24 20 30  0.00000000
PC01 -34368.953339  24433.996542   -408.655445    119.888253
PC02   4502.819928  41960.447725    475.469187     93.617981
PC03 -14793.182524  39521.300629   -502.422565   -561.410526
PC04 -39606.666969  14463.798913   -547.068250    162.189794
PC05  21912.329780  36095.608880    483.014973    223.524275
PC06  -7654.693698  23457.444627  34210.009949   -142.793133
PC07 -17656.708886  36473.478077 -11935.305175    -82.053491
PC08  -2021.783347  36682.624331 -20558.354751    277.495498
PC09   3520.205540  26278.950593  33239.221440   -726.803395
PC10 -10970.983689  36632.004771 -18026.996723    135.063072
PC11  -6101.504874  14141.317596 -23213.089889    312.033667
PC12 -22845.735343   4564.869395 -15337.069626   -624.771425
PC13   4084.765293  39919.795173 -12345.387476    -51.372459
PC14 -12511.834654  23054.485192   9638.513512    462.491651
PC16 -10331.101138  22116.751625  34537.217811    123.640507
PC19   4018.712510 -21560.545262 -17209.798973    875.498302
PC20  17938.326498 -21242.557501  -2154.455313   -889.665872
PC21 -21985.369936   8120.058032 -15144.274187   -171.761133
PC22 -12829.688377  -9396.355004 -22924.883683   -970.915467
PC23  14882.944370  20399.212377 -11875.997929   -931.301960
PC24  -9626.226834  17297.319575  19648.843640   -956.685947
PC25   5126.781189  27010.337888   4715.260739   -746.215969
PC26 -16875.854334   -540.013751  22210.888007    747.117230
PC27  26821.217100   1387.495222   7592.688402    712.977159
PC28  22921.990210  12679.422285  -9624.076163     59.126742
PC29  -5763.545735 -16596.463345  21669.531886    545.802097
PC30  15558.692535 -11105.180883  20329.881271    497.469979
PC32  21915.484814  -8183.958740  15226.016508   -962.737913
PC33  -3946.746565  21655.669928  17176.484923   -966.605738
PC34 -14553.800743  11658.479984 -20766.849708   -418.219514
PC35 -22727.948720 -12334.353695  10430.113497    243.929167
PC36  -4151.304318 -27102.031797  -5183.094983   -963.858470
PC37  17052.671587   2188.572871 -21964.682121   -919.348169
PC38  -7675.266804  32714.975481 -25351.541382    227.483792
PC39 -16710.518161  20052.056761  33108.643171     34.953290
PC40 -24781.128466  32594.436755 -10439.158950    263.596875
PC41  12526.626497   9839.750021  22969.868251   -966.394750
PC42 -18425.381979  20940.825326   1247.856781   -956.535503
PC43   4923.525197  16712.637488 -21816.508699   -928.003051
PC44 -26878.853692   -487.292041  -7430.076115    638.439582
PC45 -14935.963186 -20215.900651  12144.995248    739.929471
PC46   8574.429418 -18606.693058 -18963.652858   -289.528348
PC59 -32345.840273  27062.519377    524.751448 999999.999999
PC60   7281.581124  41522.334776  -1463.038937     -0.682297
PE01  12005.999877 -25632.396977  -8676.048837   -622.733097
PE02 -11912.683687  25711.680299   8517.126478    294.952636
PE03 -17905.932132  17347.899845  15971.090205   -551.453474
PE04  -2882.470657 -16919.845331 -24103.745361  -1013.703195
PE05 -28564.220097   7572.635922  -1721.066509   -187.761983
PE07  22451.051844   6480.895596  18175.531942   -661.910541
PE08   3240.025387  16691.380050  24237.432179   -517.934614
PE09 -22573.333860  -6168.115310 -18125.618943   -495.636519
PE10 -18949.268023 -22050.027204   5539.545657   -508.794854
PE11 -23509.425988 -17311.216695  -4819.166319   3863.968196
PE12 -11442.527502 -23178.785877  14394.903999   4646.456969
PE13  23367.104890  17707.268019   4128.723258    428.246188
PE14  21417.558085  10166.414782 -15225.045644  -1825.720613
PE15  11424.582298  23117.158286 -14543.166463    749.675416
PE18 -29456.444988   1939.809253   1286.751399  -1525.950619
PE19  20054.785338 -16514.822225 -14176.436260  -3566.373019
PE21  17462.614944  -9783.545256 -21812.247244   -730.373809
PE24 -12702.449476 -14001.561102  22766.253998   -579.017142
PE25 -17474.506392   9480.875348  21929.100063   -571.581781
PE26  21133.956525   1006.209887  20703.460325  -1068.509531
PE27  13300.697333  12657.236112 -23215.977923   -283.758541
PE30    566.950632  27825.173147 -10070.178162   -457.393409
PE31  -1347.484621 -27471.275816  10949.995544   -495.586550
PE33   7219.191133 -14859.400118  24560.487776   -457.294594
PE34  -6997.558490  15029.327072 -24530.148604   -513.739625
PE36 -21496.697187  -1925.505558 -20250.412125   -364.344161
PG01  20314.979734  11328.461755  12851.443714    377.554489
PG02 -13605.174686 -21531.165227   7907.024021   -653.233271
PG03  15091.189649   1631.308728  21678.490651   -219.654423
PG04  25436.503480   1685.504067   7620.358947   -173.145237
PG05  -8187.975923 -17269.122179 -18543.737667    -79.489630
PG06   -137.083911 -19133.814023  18449.075234    278.748905
PG07  15581.397707  -4425.961752 -20735.667218    321.036272
PG08  20324.736892   7102.142671 -15821.849101    -65.296596
PG09  25451.448603  -7136.932149  -2820.678866   -341.503394
PG10 -11519.081544  23308.701296  -4453.127643   -390.628653
PG12 -13338.735858  -6668.924339  21710.922707   -205.397648
PG13 -12036.286151 -13157.592787 -19888.935527    299.962924
PG14  13195.384014 -22345.673168  -5447.615813   -104.701316
PG15 -21453.937877  -5260.682893 -15380.340034    -66.381123
PG16   2796.697770  20700.677892 -16397.751854   -494.873736
PG17  14962.086173 -13674.192477  17619.710413    604.486399
PG18 -15381.761283   4117.924214 -21281.499369    187.202079
PG19   7874.580035 -14443.938646  20543.913565    148.707256
PG20  -3008.880272 -24394.264003 -10354.606007    515.673005
PG21  20657.675097  16968.956312   3861.778422    160.696911
PG22  -4282.927949  15506.263914  21520.552965    248.594370
PG23 -15610.254171  15949.491968 -14333.665339    -17.361014
PG24 -21673.998654 -13105.058706   8360.694640    251.835270
PG25 -16733.393750   8777.775879  18264.319185    316.270092
PG26  -3366.266015  25596.884731  -5585.579379    201.013561
PG27   8816.952777  13298.997086 -21506.552577    190.489204
PG28   8623.481321 -25000.801397   4067.032767    367.724063
PG29 -26180.983671   4170.599067  -2164.389958   -506.659785
PG30   8907.885970 -13485.417825 -20967.048784   -525.221237
PG31   1654.659622  20517.113733  16394.159525   -174.840215
PG32 -12061.305877  15255.910563  18146.759367   -112.511140
PJ02 -29013.706576  27084.543127  19039.160603     -2.981336
PJ03 -28242.090429  16150.574466 -22212.668809     -1.732951
PJ07 -25335.201273  33711.056173     41.725785     -0.025511
PR01 -16749.966971   1179.045477 -19200.393394      8.087264
PR02 -21247.083194  13843.660993  -2391.612769    516.485269
PR03 -12137.698321  17257.850304  14346.543608     55.503570
PR04   3333.935055  10807.242815  22896.775386    138.325591
PR05  17138.958831  -1433.864871  18863.676351     91.729509
PR07  11706.712355 -17168.978492 -14780.716631     34.252908
PR08  -3506.043073 -10806.550109 -22777.533963    -64.773801
PR09   9101.038230 -11027.333626 -21090.770953     51.544721
PR11  -6596.511106 -23364.460546   7813.691507     40.426745
PR12 -11191.716897  -8671.023205  21245.050465     18.087327
PR13  -9251.245803   9753.853773  21659.803889    -21.372644
PR14  -1542.586008  23890.509752   8837.485306     76.877099
PR15   6668.504260  23086.208682  -8544.341126     96.599706
PR17  -1575.513971  10768.441311 -23063.676192    520.380117
PR18  14794.212321  14264.260298 -15140.332623    114.654076
PR19  22808.407986  11418.425553   -412.583524   -186.607487
PR20  18102.971175     48.350137  17997.248607    -69.291825
PR21     11.592549 -11296.161415  22868.008651   -295.965557
PR22 -15297.183083 -14273.549884  14498.383793   -178.995780
PR24 -17760.997240   1176.682493 -18261.782377     90.647032
EOF
